NAVSTAR 71 (USA 256)    
1 40105U 14045A   26063.34733320  .00000009  00000+0  00000+0 0  9993
2 40105  55.2811  92.6405 0031518 120.4916 239.8880  2.00551475 83975
NAVSTAR 72 (USA 258)    
1 40294U 14068A   26063.22546720 -.00000078  00000+0  00000+0 0  9997
2 40294  56.9194  34.9987 0062784  68.0520 292.5993  2.00569806 83100
NAVSTAR 73 (USA 260)    
1 40534U 15013A   26063.35680113 -.00000005  00000+0  00000+0 0  9994
2 40534  53.1863 208.5115 0108747  39.7916 320.9454  2.00557614 79720
NAVSTAR 74 (USA 262)    
1 40730U 15033A   26063.51733907 -.00000014  00000+0  00000+0 0  9992
2 40730  54.0645 271.4003 0114500  28.9808 331.6783  2.00561598 77891
NAVSTAR 75 (USA 265)    
1 41019U 15062A   26063.57615744 -.00000079  00000+0  00000+0 0  9990
2 41019  56.8930  34.8413 0111453 231.4983 127.4850  2.00567082 75735
NAVSTAR 76 (USA 266)    
1 41328U 16007A   26063.16294155  .00000012  00000+0  00000+0 0  9993
2 41328  55.4554  93.6223 0095428 245.9980 113.0677  2.00556769 73733
NAVSTAR 77 (USA 289)    
1 43873U 18109A   26063.55033128  .00000012  00000+0  00000+0 0  9999
2 43873  55.6151  96.3135 0037913 198.3129 333.9774  2.00556803 52971
NAVSTAR 78 (USA 293)    
1 44506U 19056A   26063.18852645 -.00000099  00000+0  00000+0 0  9993
2 44506  55.6848 335.3179 0058028 198.1482 333.1946  2.00568296 47967
NAVSTAR 79 (USA 304)    
1 45854U 20041A   26063.05410240 -.00000081  00000+0  00000+0 0  9994
2 45854  56.6057  33.0224 0061380 205.2590 171.1803  2.00560640 41933
NAVSTAR 80 (USA 309)    
1 46826U 20078A   26063.80241721  .00000001  00000+0  00000+0 0  9994
2 46826  54.0015 215.0095 0068235 204.3155 325.6791  2.00565545 39411
NAVSTAR 81 (USA 319)    
1 48859U 21054A   26062.49128030 -.00000100  00000+0  00000+0 0  9999
2 48859  55.2215 336.7106 0023864 232.0768 255.4185  2.00575580 34631
NAVSTAR 82 (USA 343)    
1 55268U 23009A   26063.25322573  .00000006  00000+0  00000+0 0  9990
2 55268  55.1095 152.6438 0004761 333.3529  23.5463  2.00549160 23137
NAVSTAR 83 (USA 440)    
1 62339U 24242A   26059.41642148 -.00000100  00000+0  00000+0 0  9999
2 62339  54.8934 338.5934 0015681 355.9356 192.4850  2.00569355  9070
NAVSTAR 84 (USA 545)    
1 64202U 25116A   26062.39238152 -.00000077  00000+0  00000+0 0  9991
2 64202  55.1633  35.3874 0008474 325.1064  37.8908  2.00553198  5758
NAVSTAR 85 (USA 581)    
1 67588U 26017A   26062.99831483  .00000012  00000+0  00000+0 0  9992
2 67588  55.0184  92.9751 0001516  18.2827 341.7919  2.00560918429508
